FLOCK 4G-25             
1 62646U 25009AP  26068.74572546  .00010373  00000+0  38902-3 0  9990
2 62646  97.4049 151.4141 0000828 316.3151  43.8023 15.27424196 63734
STARLINK-34165          
1 63997U 25101D   26068.66670139  .00041332  00000+0  15048-2 0  9995
2 63997  43.0037 357.7874 0001779 272.4604 146.8496 15.27542503  5774
